54150,GONETS-M 23,2022,115.86,-1.0,+,82.5,Active,0,LEO,Russia,Russia/USSR,Unknown,Unknown,Unknown,1 54150U 22139A   25309.23805499  .00000019  00000+0  66855-4 0  9994,2 54150  82.5022 127.4717 0021105 351.5685   8.5037 12.42859890137829,12.4285989,0.0021105,LEO
54151,GONETS-M 24,2022,115.86,-1.0,+,82.49,Active,0,LEO,Russia,Russia/USSR,Unknown,Unknown,Unknown,1 54151U 22139B   25309.29111425  .00000032  00000+0  15982-3 0  9999,2 54151  82.4938 126.6508 0016415   2.0651 358.0494 12.42858207137835,12.42858207,0.0016415,LEO
54152,GONETS-M 25,2022,115.86,-1.0,+,82.5,Active,0,LEO,Russia,Russia/USSR,Unknown,Unknown,Unknown,1 54152U 22139C   25309.27745161  .00000022  00000+0  89391-4 0  9993,2 54152  82.5003 127.2256 0020301   0.3376 359.7714 12.42857215137832,12.42857215,0.0020301,LEO
54153,SKIF-D,2022,287.75,-1.0,+,89.97,Active,0,MEO,Russia,Russia/USSR,Unknown,Unknown,Unknown,1 54153U 22139D   25304.01904317  .00000050  00000+0  00000+0 0  9997,2 54153  89.9670  96.7340 0006071 261.3051  98.6737  5.00437169 52642,5.00437169,0.0006071,MEO
54157,STARLINK-5290,2022,95.44,260.0,+,53.22,Active,1,LEO,USA,USA,Commercial,Communications,Falcon,1 54157U 22141A   25309.06333231 -.00001766  00000+0 -92882-4 0  9996,2 54157  53.2153 213.5373 0001459  96.8345 263.2813 15.08839643166905,15.08839643,0.0001459,LEO
54158,STARLINK-5297,2022,95.44,260.0,+,53.22,Active,1,LEO,USA,USA,Commercial,Communications,Falcon,1 54158U 22141B   25309.01454676 -.00000852  00000+0 -35408-4 0  9995,2 54158  53.2162 213.9451 0001440  80.5328 279.5827 15.08846468166894,15.08846468,0.000144,LEO
54159,STARLINK-5294,2022,95.44,260.0,+,53.22,Active,1,LEO,USA,USA,Commercial,Communications,Falcon,1 54159U 22141C   25309.01086736 -.00001541  00000+0 -78727-4 0  9991,2 54159  53.2164 213.9268 0001267  86.7840 273.3298 15.08844288166899,15.08844288,0.0001267,LEO
54160,STARLINK-5233,2022,95.44,260.0,+,53.21,Active,1,LEO,USA,USA,Commercial,Communications,Falcon,1 54160U 22141D   25308.99107997  .00001146  00000+0  90147-4 0  9991,2 54160  53.2148 168.8837 0001455  94.4970 265.6189 15.08818295167525,15.08818295,0.0001455,LEO
54161,STARLINK-5269,2022,95.44,260.0,+,53.22,Active,1,LEO,USA,USA,Commercial,Communications,Falcon,1 54161U 22141E   25309.01182654 -.00000946  00000+0 -41321-4 0  9998,2 54161  53.2172 213.9269 0001500  86.5361 273.5802 15.08838465166891,15.08838465,0.00015,LEO
54162,STARLINK-5273,2022,95.44,260.0,+,53.22,Active,1,LEO,USA,USA,Commercial,Communications,Falcon,1 54162U 22141F   25309.00350239 -.00000882  00000+0 -37347-4 0  9996,2 54162  53.2174 213.8782 0001600  78.1124 282.0048 15.08839157166894,15.08839157,0.00016,LEO
54163,STARLINK-5161,2022,95.44,260.0,+,53.22,Active,1,LEO,USA,USA,Commercial,Communications,Falcon,1 54163U 22141G   25308.68427255  .00000942  00000+0  77269-4 0  9995,2 54163  53.2169 205.4622 0001559  88.8886 271.2285 15.08828910166983,15.0882891,0.0001559,LEO
54164,STARLINK-5278,2022,95.44,260.0,+,53.21,Active,1,LEO,USA,USA,Commercial,Communications,Falcon,1 54164U 22141H   25309.01916548 -.00000407  00000+0 -74976-5 0  9993,2 54164  53.2181 204.0015 0001550  95.0420 265.0749 15.08835793167034,15.08835793,0.000155,LEO
54165,STARLINK-5279,2022,95.44,260.0,+,53.22,Active,1,LEO,USA,USA,Commercial,Communications,Falcon,1 54165U 22141J   25309.06605252 -.00000057  00000+0  14533-4 0  9998,2 54165  53.2179 213.5574 0001530  87.7378 272.3790 15.08840245166905,15.08840245,0.000153,LEO
54166,STARLINK-5280,2022,95.44,260.0,+,53.22,Active,1,LEO,USA,USA,Commercial,Communications,Falcon,1 54166U 22141K   25309.01179572 -.00001035  00000+0 -46971-4 0  9994,2 54166  53.2175 203.9529 0001600  94.6491 265.4684 15.08837508167034,15.08837508,0.00016,LEO
54167,STARLINK-5243,2022,95.44,260.0,+,53.22,Active,1,LEO,USA,USA,Commercial,Communications,Falcon,1 54167U 22141L   25309.04763043 -.00000529  00000+0 -15113-4 0  9991,2 54167  53.2175 213.4421 0001559  92.0340 268.0831 15.08840398166909,15.08840398,0.0001559,LEO
54168,STARLINK-5245,2022,95.44,260.0,+,53.22,Active,1,LEO,USA,USA,Commercial,Communications,Falcon,1 54168U 22141M   25309.00810852 -.00004430  00000+0 -26036-3 0  9999,2 54168  53.2169 203.9308 0001440  91.0601 269.0556 15.08850499167032,15.08850499,0.000144,LEO
54169,STARLINK-5282,2022,95.44,260.0,+,53.22,Active,1,LEO,USA,USA,Commercial,Communications,Falcon,1 54169U 22141N   25308.42661165 -.00002963  00000+0 -16803-3 0  9996,2 54169  53.2175 205.9927 0002958  81.6912 278.4415 15.08845193166957,15.08845193,0.0002958,LEO
54170,STARLINK-5155,2022,95.44,260.0,+,53.22,Active,1,LEO,USA,USA,Commercial,Communications,Falcon,1 54170U 22141P   25308.73946374  .00002869  00000+0  19829-3 0  9994,2 54170  53.2160 205.0963 0001709  89.2491 270.8697 15.08840044166995,15.08840044,0.0001709,LEO
54172,STARLINK-5117,2022,95.44,260.0,+,53.22,Active,1,LEO,USA,USA,Commercial,Communications,Falcon,1 54172U 22141R   25308.73208731  .00000019  00000+0  19249-4 0  9996,2 54172  53.2149 205.0507 0001274  77.8408 282.2727 15.08846568166994,15.08846568,0.0001274,LEO
54173,STARLINK-5242,2022,95.44,260.0,+,53.22,Active,1,LEO,USA,USA,Commercial,Communications,Falcon,1 54173U 22141S   25309.02644865 -.00000688  00000+0 -25165-4 0  9990,2 54173  53.2180 203.3370 0001501  93.1429 266.9735 15.08838976167045,15.08838976,0.0001501,LEO
54174,STARLINK-5248,2022,95.44,260.0,+,53.22,Active,1,LEO,USA,USA,Commercial,Communications,Falcon,1 54174U 22141T   25308.83462422  .00000588  00000+0  54976-4 0  9995,2 54174  53.2176 149.3586 0000830  85.9820 274.1267 15.08860198167780,15.08860198,8.3e-05,LEO
54175,STARLINK-5256,2022,95.44,260.0,+,53.22,Active,1,LEO,USA,USA,Commercial,Communications,Falcon,1 54175U 22141U   25309.00072288  .00000584  00000+0  54754-4 0  9993,2 54175  53.2139 203.8830 0001301  81.7273 278.3867 15.08847964167034,15.08847964,0.0001301,LEO
54176,STARLINK-5154,2022,95.44,260.0,+,53.22,Active,1,LEO,USA,USA,Commercial,Communications,Falcon,1 54176U 22141V   25308.98599640 -.00001632  00000+0 -84462-4 0  9992,2 54176  53.2175 203.7913 0001697  95.3303 264.7883 15.08846461167037,15.08846461,0.0001697,LEO
54177,STARLINK-5186,2022,95.44,260.0,+,53.22,Active,1,LEO,USA,USA,Commercial,Communications,Falcon,1 54177U 22141W   25308.99336479 -.00000668  00000+0 -23887-4 0  9995,2 54177  53.2159 203.8382 0001361  86.9961 273.1187 15.08841150167036,15.0884115,0.0001361,LEO
54178,STARLINK-5164,2022,95.44,260.0,+,53.22,Active,1,LEO,USA,USA,Commercial,Communications,Falcon,1 54178U 22141X   25309.03749611 -.00001019  00000+0 -45930-4 0  9992,2 54178  53.2166 203.3807 0001492  91.3016 268.8147 15.08838179167043,15.08838179,0.0001492,LEO
54179,STARLINK-5122,2022,95.44,260.0,+,53.22,Active,1,LEO,USA,USA,Commercial,Communications,Falcon,1 54179U 22141Y   25308.98969828 -.00002794  00000+0 -15758-3 0  9995,2 54179  53.2170 203.8173 0000832  50.9196 309.1870 15.08832262167035,15.08832262,8.32e-05,LEO
54180,STARLINK-5228,2022,95.44,260.0,+,53.22,Active,1,LEO,USA,USA,Commercial,Communications,Falcon,1 54180U 22141Z   25309.03381850 -.00001077  00000+0 -49554-4 0  9992,2 54180  53.2169 203.3784 0001560  83.1471 276.9699 15.08838862167044,15.08838862,0.000156,LEO
54181,STARLINK-5227,2022,95.44,260.0,+,53.22,Active,1,LEO,USA,USA,Commercial,Communications,Falcon,1 54181U 22141AA  25308.97863415  .00004555  00000+0  30408-3 0  9996,2 54181  53.2157 203.7448 0001742 101.8748 258.2440 15.08843175167039,15.08843175,0.0001742,LEO
54182,STARLINK-5231,2022,95.44,260.0,+,53.22,Active,1,LEO,USA,USA,Commercial,Communications,Falcon,1 54182U 22141AB  25308.88937217 -.00000439  00000+0 -94965-5 0  9998,2 54182  53.2163 174.0049 0001219  91.4383 268.6749 15.08837164167445,15.08837164,0.0001219,LEO
54183,STARLINK-5239,2022,95.44,260.0,+,53.22,Active,1,LEO,USA,USA,Commercial,Communications,Falcon,1 54183U 22141AC  25309.22884437  .00001029  00000+0  82732-4 0  9995,2 54183  53.2184 202.4651 0001500  83.2200 276.8963 15.08845283167073,15.08845283,0.00015,LEO
