OBJECT_NAME,OBJECT_ID,EPOCH,MEAN_MOTION,ECCENTRICITY,INCLINATION,RA_OF_ASC_NODE,ARG_OF_PERICENTER,MEAN_ANOMALY,EPHEMERIS_TYPE,CLASSIFICATION_TYPE,NORAD_CAT_ID,ELEMENT_SET_NO,REV_AT_EPOCH,BSTAR,MEAN_MOTION_DOT,MEAN_MOTION_DDOT
GONETS-M 23,2022-139A,2025-11-05T05:42:47.951136,12.42859890,.00211054,82.5022,127.4717,351.5685,8.5037,0,U,54150,999,13782,.6685457E-4,.19E-6,0
GONETS-M 24,2022-139B,2025-11-05T06:59:12.271200,12.42858207,.00164151,82.4938,126.6508,2.0651,358.0494,0,U,54151,999,13783,.15982213E-3,.32E-6,0
GONETS-M 25,2022-139C,2025-11-05T06:39:31.819104,12.42857215,.00203017,82.5003,127.2256,0.3376,359.7714,0,U,54152,999,13783,.89390643E-4,.22E-6,0
SKIF-D,2022-139D,2025-10-31T00:27:25.329888,5.00437169,.00060718,89.9670,96.7340,261.3051,98.6737,0,U,54153,999,5264,0,.5E-6,0
STARLINK-5290,2022-141A,2025-11-05T01:31:11.911584,15.08839643,.00014595,53.2153,213.5373,96.8345,263.2813,0,U,54157,999,16690,-.92881712E-4,-.1766E-4,0
STARLINK-5297,2022-141B,2025-11-05T00:20:56.840064,15.08846468,.00014403,53.2162,213.9451,80.5328,279.5827,0,U,54158,999,16689,-.35408001E-4,-.852E-5,0
STARLINK-5294,2022-141C,2025-11-05T00:15:38.939904,15.08844288,.00012678,53.2164,213.9268,86.7840,273.3298,0,U,54159,999,16689,-.78727136E-4,-.1541E-4,0
STARLINK-5233,2022-141D,2025-11-04T23:47:09.309408,15.08818295,.00014558,53.2148,168.8837,94.4970,265.6189,0,U,54160,999,16752,.90146881E-4,.1146E-4,0
STARLINK-5269,2022-141E,2025-11-05T00:17:01.813056,15.08838465,.00015006,53.2172,213.9269,86.5361,273.5802,0,U,54161,999,16689,-.41321318E-4,-.946E-5,0
STARLINK-5273,2022-141F,2025-11-05T00:05:02.606496,15.08839157,.00016007,53.2174,213.8782,78.1124,282.0048,0,U,54162,999,16689,-.37347453E-4,-.882E-5,0
STARLINK-5161,2022-141G,2025-11-04T16:25:21.148320,15.08828910,.00015595,53.2169,205.4622,88.8886,271.2285,0,U,54163,999,16698,.77269419E-4,.942E-5,0
STARLINK-5278,2022-141H,2025-11-05T00:27:35.897472,15.08835793,.00015508,53.2181,204.0015,95.0420,265.0749,0,U,54164,999,16703,-.7497649E-5,-.407E-5,0
STARLINK-5279,2022-141J,2025-11-05T01:35:06.937728,15.08840245,.00015307,53.2179,213.5574,87.7378,272.3790,0,U,54165,999,16690,.14533405E-4,-.57E-6,0
STARLINK-5280,2022-141K,2025-11-05T00:16:59.150208,15.08837508,.00016006,53.2175,203.9529,94.6491,265.4684,0,U,54166,999,16703,-.46971379E-4,-.1035E-4,0
STARLINK-5243,2022-141L,2025-11-05T01:08:35.269152,15.08840398,.00015592,53.2175,213.4421,92.0340,268.0831,0,U,54167,999,16690,-.15112597E-4,-.529E-5,0
STARLINK-5245,2022-141M,2025-11-05T00:11:40.576128,15.08850499,.00014402,53.2169,203.9308,91.0601,269.0556,0,U,54168,999,16703,-.2603625E-3,-.443E-4,0
STARLINK-5282,2022-141N,2025-11-04T10:14:19.246560,15.08845193,.00029586,53.2175,205.9927,81.6912,278.4415,0,U,54169,999,16695,-.16803117E-3,-.2963E-4,0
STARLINK-5155,2022-141P,2025-11-04T17:44:49.667136,15.08840044,.00017093,53.2160,205.0963,89.2491,270.8697,0,U,54170,999,16699,.19828549E-3,.2869E-4,0
STARLINK-5117,2022-141R,2025-11-04T17:34:12.343584,15.08846568,.00012746,53.2149,205.0507,77.8408,282.2727,0,U,54172,999,16699,.19248512E-4,.19E-6,0
STARLINK-5242,2022-141S,2025-11-05T00:38:05.163360,15.08838976,.00015012,53.2180,203.3370,93.1429,266.9735,0,U,54173,999,16704,-.25165217E-4,-.688E-5,0
STARLINK-5248,2022-141T,2025-11-04T20:01:51.532608,15.08860198,.000083,53.2176,149.3586,85.9820,274.1267,0,U,54174,999,16778,.549764E-4,.588E-5,0
STARLINK-5256,2022-141U,2025-11-05T00:01:02.456832,15.08847964,.00013015,53.2139,203.8830,81.7273,278.3867,0,U,54175,999,16703,.54753675E-4,.584E-5,0
STARLINK-5154,2022-141V,2025-11-04T23:39:50.088960,15.08846461,.00016974,53.2175,203.7913,95.3303,264.7883,0,U,54176,999,16703,-.84462295E-4,-.1632E-4,0
STARLINK-5186,2022-141W,2025-11-04T23:50:26.717856,15.08841150,.00013611,53.2159,203.8382,86.9961,273.1187,0,U,54177,999,16703,-.23887016E-4,-.668E-5,0
STARLINK-5164,2022-141X,2025-11-05T00:53:59.663904,15.08838179,.00014922,53.2166,203.3807,91.3016,268.8147,0,U,54178,999,16704,-.45930085E-4,-.1019E-4,0
STARLINK-5122,2022-141Y,2025-11-04T23:45:09.931392,15.08832262,.0000832,53.2170,203.8173,50.9196,309.1870,0,U,54179,999,16703,-.15758124E-3,-.2794E-4,0
STARLINK-5228,2022-141Z,2025-11-05T00:48:41.918400,15.08838862,.00015602,53.2169,203.3784,83.1471,276.9699,0,U,54180,999,16704,-.49553994E-4,-.1077E-4,0
STARLINK-5227,2022-141AA,2025-11-04T23:29:13.990560,15.08843175,.00017422,53.2157,203.7448,101.8748,258.2440,0,U,54181,999,16703,.30408336E-3,.4555E-4,0
STARLINK-5231,2022-141AB,2025-11-04T21:20:41.755488,15.08837164,.0001219,53.2163,174.0049,91.4383,268.6749,0,U,54182,999,16744,-.9496488E-5,-.439E-5,0
STARLINK-5239,2022-141AC,2025-11-05T05:29:32.153568,15.08845283,.00015005,53.2184,202.4651,83.2200,276.8963,0,U,54183,999,16707,.82732074E-4,.1029E-4,0
